{
  "type": "FeatureCollection",
  "features": [
    {
      "type": "Feature",
      "properties": {
        "norad_id": 28899,
        "name": "INMARSAT 4-F2 (SOUTHPAN/PRN 122)",
        "group": "gnss",
        "lat": 3.7608965157537995,
        "lon": 93.90138276672238,
        "alt_km": 35796.36677805404,
        "timestamp": "2025-12-18T14:52:08.267184+00:00",
        "meta_object_name": "INMARSAT 4-F2 (SOUTHPAN/PRN 122)",
        "meta_object_id": "2005-044A",
        "meta_epoch": "2025-12-18T05:10:51.708864",
        "meta_mean_motion": 1.00271004,
        "meta_eccentricity": 0.00024878,
        "meta_inclination": 4.8592,
        "meta_ra_of_asc_node": 43.7025,
        "meta_arg_of_pericenter": 225.9179,
        "meta_mean_anomaly": 38.6773,
        "meta_ephemeris_type": 0,
        "meta_classification_type": "U",
        "meta_norad_cat_id": 28899,
        "meta_element_set_no": 999,
        "meta_rev_at_epoch": 7370,
        "meta_bstar": 0,
        "meta_mean_motion_dot": -2.4e-06,
        "meta_mean_motion_ddot": 0,
        "tle_line1": "1 28899U 05044A   25352.21587626 -.00000240  00000+0  00000+0 0  9998",
        "tle_line2": "2 28899   4.8592  43.7025 0002487 225.9179  38.6773  1.00271004 73709"
      },
      "geometry": {
        "type": "Point",
        "coordinates": [
          93.90138276672238,
          3.7608965157537995
        ]
      }
    },
    {
      "type": "Feature",
      "properties": {
        "norad_id": 29486,
        "name": "GPS BIIRM-2 (PRN 31)",
        "group": "gnss",
        "lat": 53.50515508790492,
        "lon": -128.10101216887583,
        "alt_km": 19924.720344769885,
        "timestamp": "2025-12-18T14:52:08.267197+00:00",
        "meta_object_name": "GPS BIIRM-2 (PRN 31)",
        "meta_object_id": "2006-042A",
        "meta_epoch": "2025-12-16T18:24:54.505728",
        "meta_mean_motion": 2.00554045,
        "meta_eccentricity": 0.01073341,
        "meta_inclination": 54.6946,
        "meta_ra_of_asc_node": 158.5809,
        "meta_arg_of_pericenter": 52.0567,
        "meta_mean_anomaly": 130.2096,
        "meta_ephemeris_type": 0,
        "meta_classification_type": "U",
        "meta_norad_cat_id": 29486,
        "meta_element_set_no": 999,
        "meta_rev_at_epoch": 14073,
        "meta_bstar": 0,
        "meta_mean_motion_dot": 8.7e-07,
        "meta_mean_motion_ddot": 0,
        "tle_line1": "1 29486U 06042A   25350.76729752  .00000087  00000+0  00000+0 0  9994",
        "tle_line2": "2 29486  54.6946 158.5809 0107334  52.0567 130.2096  2.00554045140735"
      },
      "geometry": {
        "type": "Point",
        "coordinates": [
          -128.10101216887583,
          53.50515508790492
        ]
      }
    },
    {
      "type": "Feature",
      "properties": {
        "norad_id": 29601,
        "name": "GPS BIIRM-3 (PRN 12)",
        "group": "gnss",
        "lat": 32.914644300458654,
        "lon": 14.188612112067567,
        "alt_km": 20029.625704757782,
        "timestamp": "2025-12-18T14:52:08.267209+00:00",
        "meta_object_name": "GPS BIIRM-3 (PRN 12)",
        "meta_object_id": "2006-052A",
        "meta_epoch": "2025-12-17T22:21:49.009536",
        "meta_mean_motion": 2.00574024,
        "meta_eccentricity": 0.00876985,
        "meta_inclination": 54.9696,
        "meta_ra_of_asc_node": 221.1922,
        "meta_arg_of_pericenter": 87.4131,
        "meta_mean_anomaly": 273.6858,
        "meta_ephemeris_type": 0,
        "meta_classification_type": "U",
        "meta_norad_cat_id": 29601,
        "meta_element_set_no": 999,
        "meta_rev_at_epoch": 13977,
        "meta_bstar": 0,
        "meta_mean_motion_dot": 7.5e-07,
        "meta_mean_motion_ddot": 0,
        "tle_line1": "1 29601U 06052A   25351.93181724  .00000075  00000+0  00000+0 0  9992",
        "tle_line2": "2 29601  54.9696 221.1922 0087698  87.4131 273.6858  2.00574024139770"
      },
      "geometry": {
        "type": "Point",
        "coordinates": [
          14.188612112067567,
          32.914644300458654
        ]
      }
    },
    {
      "type": "Feature",
      "properties": {
        "norad_id": 32260,
        "name": "GPS BIIRM-4 (PRN 15)",
        "group": "gnss",
        "lat": -53.37831334396397,
        "lon": 9.50176050428108,
        "alt_km": 20613.484318233077,
        "timestamp": "2025-12-18T14:52:08.267222+00:00",
        "meta_object_name": "GPS BIIRM-4 (PRN 15)",
        "meta_object_id": "2007-047A",
        "meta_epoch": "2025-12-16T05:50:40.680960",
        "meta_mean_motion": 2.00564415,
        "meta_eccentricity": 0.01640743,
        "meta_inclination": 53.9576,
        "meta_ra_of_asc_node": 87.6137,
        "meta_arg_of_pericenter": 85.2864,
        "meta_mean_anomaly": 276.5744,
        "meta_ephemeris_type": 0,
        "meta_classification_type": "U",
        "meta_norad_cat_id": 32260,
        "meta_element_set_no": 999,
        "meta_rev_at_epoch": 13314,
        "meta_bstar": 0,
        "meta_mean_motion_dot": -5.5e-07,
        "meta_mean_motion_ddot": 0,
        "tle_line1": "1 32260U 07047A   25350.24352640 -.00000055  00000+0  00000+0 0  9991",
        "tle_line2": "2 32260  53.9576  87.6137 0164074  85.2864 276.5744  2.00564415133141"
      },
      "geometry": {
        "type": "Point",
        "coordinates": [
          9.50176050428108,
          -53.37831334396397
        ]
      }
    },
    {
      "type": "Feature",
      "properties": {
        "norad_id": 32275,
        "name": "COSMOS 2433 (720)",
        "group": "gnss",
        "lat": -62.79820893353229,
        "lon": -99.61034854333519,
        "alt_km": 19124.171590238,
        "timestamp": "2025-12-18T14:52:08.267235+00:00",
        "meta_object_name": "COSMOS 2433 (720)",
        "meta_object_id": "2007-052A",
        "meta_epoch": "2025-12-14T23:11:38.718240",
        "meta_mean_motion": 2.13103955,
        "meta_eccentricity": 0.00054201,
        "meta_inclination": 65.6819,
        "meta_ra_of_asc_node": 322.1305,
        "meta_arg_of_pericenter": 253.5649,
        "meta_mean_anomaly": 106.3736,
        "meta_ephemeris_type": 0,
        "meta_classification_type": "U",
        "meta_norad_cat_id": 32275,
        "meta_element_set_no": 999,
        "meta_rev_at_epoch": 14113,
        "meta_bstar": 0,
        "meta_mean_motion_dot": -6.5e-07,
        "meta_mean_motion_ddot": 0,
        "tle_line1": "1 32275U 07052A   25348.96642035 -.00000065  00000+0  00000+0 0  9990",
        "tle_line2": "2 32275  65.6819 322.1305 0005420 253.5649 106.3736  2.13103955141132"
      },
      "geometry": {
        "type": "Point",
        "coordinates": [
          -99.61034854333519,
          -62.79820893353229
        ]
      }
    },
    {
      "type": "Feature",
      "properties": {
        "norad_id": 32276,
        "name": "COSMOS 2432 (719)",
        "group": "gnss",
        "lat": -41.69010999920866,
        "lon": 165.8454548875969,
        "alt_km": 19132.69746350875,
        "timestamp": "2025-12-18T14:52:08.267247+00:00",
        "meta_object_name": "COSMOS 2432 (719)",
        "meta_object_id": "2007-052B",
        "meta_epoch": "2025-12-15T06:31:38.583840",
        "meta_mean_motion": 2.13103103,
        "meta_eccentricity": 0.00112605,
        "meta_inclination": 65.6973,
        "meta_ra_of_asc_node": 322.2446,
        "meta_arg_of_pericenter": 312.4858,
        "meta_mean_anomaly": 226.3212,
        "meta_ephemeris_type": 0,
        "meta_classification_type": "U",
        "meta_norad_cat_id": 32276,
        "meta_element_set_no": 999,
        "meta_rev_at_epoch": 14116,
        "meta_bstar": 0,
        "meta_mean_motion_dot": -6.6e-07,
        "meta_mean_motion_ddot": 0,
        "tle_line1": "1 32276U 07052B   25349.27197435 -.00000066  00000+0  00000+0 0  9996",
        "tle_line2": "2 32276  65.6973 322.2446 0011260 312.4858 226.3212  2.13103103141167"
      },
      "geometry": {
        "type": "Point",
        "coordinates": [
          165.8454548875969,
          -41.69010999920866
        ]
      }
    },
    {
      "type": "Feature",
      "properties": {
        "norad_id": 32384,
        "name": "GPS BIIRM-5 (PRN 29)",
        "group": "gnss",
        "lat": 36.63179230952198,
        "lon": -47.49022852513378,
        "alt_km": 20213.364220764375,
        "timestamp": "2025-12-18T14:52:08.267258+00:00",
        "meta_object_name": "GPS BIIRM-5 (PRN 29)",
        "meta_object_id": "2007-062A",
        "meta_epoch": "2025-12-18T04:16:41.212992",
        "meta_mean_motion": 2.00577654,
        "meta_eccentricity": 0.00322562,
        "meta_inclination": 55.1774,
        "meta_ra_of_asc_node": 281.4278,
        "meta_arg_of_pericenter": 162.2486,
        "meta_mean_anomaly": 286.0474,
        "meta_ephemeris_type": 0,
        "meta_classification_type": "U",
        "meta_norad_cat_id": 32384,
        "meta_element_set_no": 999,
        "meta_rev_at_epoch": 13188,
        "meta_bstar": 0,
        "meta_mean_motion_dot": -4.7e-07,
        "meta_mean_motion_ddot": 0,
        "tle_line1": "1 32384U 07062A   25352.17825478 -.00000047  00000+0  00000+0 0  9994",
        "tle_line2": "2 32384  55.1774 281.4278 0032256 162.2486 286.0474  2.00577654131888"
      },
      "geometry": {
        "type": "Point",
        "coordinates": [
          -47.49022852513378,
          36.63179230952198
        ]
      }
    }
  ]
}